start=new Date('2023-05-30T00:00:00.000Z').valueOf();
sats=[{"DECAY_DATE":null,"OBJECT_ID":"2023-042AC","RA_OF_ASC_NODE":"159.9769","CLASSIFICATION_TYPE":"U","CENTER_NAME":"EARTH","PERIOD":"93.905","REF_FRAME":"TEME","TIME_SYSTEM":"UTC","MEAN_ELEMENT_THEORY":"SGP4","SITE":"AFETR","RCS_SIZE":"LARGE","COUNTRY_CODE":"US","TLE_LINE1":"1 56012U 23042AC  23149.91667824 -.00861673  00000-0 -28309-1 0  9993","NORAD_CAT_ID":"56012","ELEMENT_SET_NO":"999","PERIAPSIS":"464.649","MEAN_ANOMALY":"261.1539","ECCENTRICITY":"0.00012390","BSTAR":"-0.02830900000000","MEAN_MOTION":"15.33461346","GP_ID":"232751857","EPOCH":"2023-05-29T22:00:00.999936","ARG_OF_PERICENTER":"266.5081","SEMIMAJOR_AXIS":"6843.632","MEAN_MOTION_DDOT":"0.0000000000000","APOAPSIS":"466.344","REV_AT_EPOCH":"1072","TLE_LINE2":"2 56012  42.9984 159.9769 0001239 266.5081 261.1539 15.33461346 10724","MEAN_MOTION_DOT":"-0.00861673","OBJECT_NAME":"STARLINK-5940","OBJECT_TYPE":"PAYLOAD","INCLINATION":"42.9984","FILE":"3920130","EPHEMERIS_TYPE":"0","LAUNCH_DATE":"2023-03-24"},{"COUNTRY_CODE":"US","TLE_LINE1":"1 56013U 23042AD  23149.78228449 -.00000428  00000-0 -15516-4 0  9997","MEAN_ANOMALY":"92.0210","PERIAPSIS":"552.352","ELEMENT_SET_NO":"999","NORAD_CAT_ID":"56013","CLASSIFICATION_TYPE":"U","CENTER_NAME":"EARTH","RA_OF_ASC_NODE":"170.6823","OBJECT_ID":"2023-042AD","DECAY_DATE":null,"RCS_SIZE":"LARGE","SITE":"AFETR","MEAN_ELEMENT_THEORY":"SGP4","TIME_SYSTEM":"UTC","REF_FRAME":"TEME","PERIOD":"95.714","OBJECT_NAME":"STARLINK-5941","MEAN_MOTION_DOT":"-0.00000428","TLE_LINE2":"2 56013  42.9999 170.6823 0001070 268.0510  92.0210 15.04483360 10241","MEAN_MOTION_DDOT":"0.0000000000000","APOAPSIS":"553.836","REV_AT_EPOCH":"1024","LAUNCH_DATE":"2023-03-24","EPHEMERIS_TYPE":"0","FILE":"3920354","INCLINATION":"42.9999","OBJECT_TYPE":"PAYLOAD","BSTAR":"-0.00001551600000","ECCENTRICITY":"0.00010700","SEMIMAJOR_AXIS":"6931.229","ARG_OF_PERICENTER":"268.0510","EPOCH":"2023-05-29T18:46:29.379936","GP_ID":"232782599","MEAN_MOTION":"15.04483360"},{"RA_OF_ASC_NODE":"159.9258","CLASSIFICATION_TYPE":"U","CENTER_NAME":"EARTH","DECAY_DATE":null,"OBJECT_ID":"2023-042AE","RCS_SIZE":"LARGE","PERIOD":"93.864","REF_FRAME":"TEME","TIME_SYSTEM":"UTC","MEAN_ELEMENT_THEORY":"SGP4","SITE":"AFETR","TLE_LINE1":"1 56014U 23042AE  23149.91667824 -.00861057  00000-0 -27689-1 0  9991","COUNTRY_CODE":"US","PERIAPSIS":"462.659","MEAN_ANOMALY":"282.6298","NORAD_CAT_ID":"56014","ELEMENT_SET_NO":"999","BSTAR":"-0.02768900000000","ECCENTRICITY":"0.00012380","EPOCH":"2023-05-29T22:00:00.999936","SEMIMAJOR_AXIS":"6841.641","ARG_OF_PERICENTER":"266.2651","MEAN_MOTION":"15.34130776","GP_ID":"232751887","OBJECT_NAME":"STARLINK-5942","APOAPSIS":"464.353","REV_AT_EPOCH":"1072","MEAN_MOTION_DDOT":"0.0000000000000","TLE_LINE2":"2 56014  42.9981 159.9258 0001238 266.2651 282.6298 15.34130776 10726","MEAN_MOTION_DOT":"-0.00861057","FILE":"3920131","EPHEMERIS_TYPE":"0","LAUNCH_DATE":"2023-03-24","INCLINATION":"42.9981","OBJECT_TYPE":"PAYLOAD"},{"APOAPSIS":"465.756","MEAN_MOTION_DDOT":"0.0000000000000","REV_AT_EPOCH":"1072","TLE_LINE2":"2 56015  42.9982 159.9616 0001239 264.1729 269.9473 15.33659253 10728","MEAN_MOTION_DOT":"-0.00861645","OBJECT_NAME":"STARLINK-5939","OBJECT_TYPE":"PAYLOAD","INCLINATION":"42.9982","FILE":"3920153","EPHEMERIS_TYPE":"0","LAUNCH_DATE":"2023-03-24","ECCENTRICITY":"0.00012390","BSTAR":"-0.02813000000000","MEAN_MOTION":"15.33659253","GP_ID":"232751921","EPOCH":"2023-05-29T22:00:00.999936","SEMIMAJOR_AXIS":"6843.043","ARG_OF_PERICENTER":"264.1729","COUNTRY_CODE":"US","TLE_LINE1":"1 56015U 23042AF  23149.91667824 -.00861645  00000-0 -28130-1 0  9997","NORAD_CAT_ID":"56015","ELEMENT_SET_NO":"999","PERIAPSIS":"464.060","MEAN_ANOMALY":"269.9473","DECAY_DATE":null,"OBJECT_ID":"2023-042AF","RA_OF_ASC_NODE":"159.9616","CLASSIFICATION_TYPE":"U","CENTER_NAME":"EARTH","PERIOD":"93.893","REF_FRAME":"TEME","TIME_SYSTEM":"UTC","MEAN_ELEMENT_THEORY":"SGP4","SITE":"AFETR","RCS_SIZE":"LARGE"},{"DECAY_DATE":null,"OBJECT_ID":"2023-042AG","RA_OF_ASC_NODE":"159.8307","CLASSIFICATION_TYPE":"U","CENTER_NAME":"EARTH","PERIOD":"93.785","REF_FRAME":"TEME","MEAN_ELEMENT_THEORY":"SGP4","TIME_SYSTEM":"UTC","SITE":"AFETR","RCS_SIZE":"LARGE","TLE_LINE1":"1 56016U 23042AG  23149.91667824 -.00861201  00000-0 -26563-1 0  9994","COUNTRY_CODE":"US","NORAD_CAT_ID":"56016","ELEMENT_SET_NO":"999","PERIAPSIS":"458.788","MEAN_ANOMALY":"324.8007","BSTAR":"-0.02656300000000","ECCENTRICITY":"0.00012610","MEAN_MOTION":"15.35428594","GP_ID":"232752429","EPOCH":"2023-05-29T22:00:00.999936","ARG_OF_PERICENTER":"263.0242","SEMIMAJOR_AXIS":"6837.785","APOAPSIS":"460.512","MEAN_MOTION_DDOT":"0.0000000000000","REV_AT_EPOCH":"1072","TLE_LINE2":"2 56016  42.9981 159.8307 0001261 263.0242 324.8007 15.35428594 10725","MEAN_MOTION_DOT":"-0.00861201","OBJECT_NAME":"STARLINK-5943","OBJECT_TYPE":"PAYLOAD","INCLINATION":"42.9981","FILE":"3920153","EPHEMERIS_TYPE":"0","LAUNCH_DATE":"2023-03-24"},{"REF_FRAME":"TEME","PERIOD":"93.837","SITE":"AFETR","TIME_SYSTEM":"UTC","MEAN_ELEMENT_THEORY":"SGP4","RCS_SIZE":"LARGE","OBJECT_ID":"2023-042AH","DECAY_DATE":null,"RA_OF_ASC_NODE":"159.8923","CLASSIFICATION_TYPE":"U","CENTER_NAME":"EARTH","NORAD_CAT_ID":"56017","ELEMENT_SET_NO":"999","PERIAPSIS":"461.331","MEAN_ANOMALY":"304.6115","COUNTRY_CODE":"US","TLE_LINE1":"1 56017U 23042AH  23149.91667824 -.00861600  00000-0 -27319-1 0  9998","GP_ID":"232753076","MEAN_MOTION":"15.34571883","EPOCH":"2023-05-29T22:00:00.999936","SEMIMAJOR_AXIS":"6840.329","ARG_OF_PERICENTER":"257.8215","ECCENTRICITY":"0.00012620","BSTAR":"-0.02731900000000","INCLINATION":"42.9982","OBJECT_TYPE":"PAYLOAD","FILE":"3920166","LAUNCH_DATE":"2023-03-24","EPHEMERIS_TYPE":"0","REV_AT_EPOCH":"1072","APOAPSIS":"463.058","MEAN_MOTION_DDOT":"0.0000000000000","MEAN_MOTION_DOT":"-0.00861600","TLE_LINE2":"2 56017  42.9982 159.8923 0001262 257.8215 304.6115 15.34571883 10728","OBJECT_NAME":"STARLINK-5934"},{"PERIOD":"93.798","REF_FRAME":"TEME","MEAN_ELEMENT_THEORY":"SGP4","TIME_SYSTEM":"UTC","SITE":"AFETR","RCS_SIZE":"LARGE","DECAY_DATE":null,"OBJECT_ID":"2023-042AJ","RA_OF_ASC_NODE":"159.8457","CLASSIFICATION_TYPE":"U","CENTER_NAME":"EARTH","NORAD_CAT_ID":"56018","ELEMENT_SET_NO":"999","PERIAPSIS":"459.432","MEAN_ANOMALY":"321.0740","COUNTRY_CODE":"US","TLE_LINE1":"1 56018U 23042AJ  23149.91667824 -.00863036  00000-0 -26809-1 0  9997","MEAN_MOTION":"15.35214231","GP_ID":"232752459","EPOCH":"2023-05-29T22:00:00.999936","ARG_OF_PERICENTER":"260.4958","SEMIMAJOR_AXIS":"6838.421","ECCENTRICITY":"0.00012490","BSTAR":"-0.02680900000000","INCLINATION":"42.9982","OBJECT_TYPE":"PAYLOAD","FILE":"3920136","EPHEMERIS_TYPE":"0","LAUNCH_DATE":"2023-03-24","REV_AT_EPOCH":"1072","APOAPSIS":"461.140","MEAN_MOTION_DDOT":"0.0000000000000","TLE_LINE2":"2 56018  42.9982 159.8457 0001249 260.4958 321.0740 15.35214231 10729","MEAN_MOTION_DOT":"-0.00863036","OBJECT_NAME":"STARLINK-5945"},{"COUNTRY_CODE":"US","TLE_LINE1":"1 56019U 23042AK  23149.91667824 -.00860918  00000-0 -27508-1 0  9991","MEAN_ANOMALY":"293.9771","PERIAPSIS":"462.056","ELEMENT_SET_NO":"999","NORAD_CAT_ID":"56019","CLASSIFICATION_TYPE":"U","CENTER_NAME":"EARTH","RA_OF_ASC_NODE":"159.9104","OBJECT_ID":"2023-042AK","DECAY_DATE":null,"RCS_SIZE":"LARGE","SITE":"AFETR","TIME_SYSTEM":"UTC","MEAN_ELEMENT_THEORY":"SGP4","REF_FRAME":"TEME","PERIOD":"93.852","OBJECT_NAME":"STARLINK-5949","MEAN_MOTION_DOT":"-0.00860918","TLE_LINE2":"2 56019  42.9982 159.9104 0001252 261.1668 293.9771 15.34330103 10727","APOAPSIS":"463.769","MEAN_MOTION_DDOT":"0.0000000000000","REV_AT_EPOCH":"1072","LAUNCH_DATE":"2023-03-24","EPHEMERIS_TYPE":"0","FILE":"3920136","OBJECT_TYPE":"PAYLOAD","INCLINATION":"42.9982","ECCENTRICITY":"0.00012520","BSTAR":"-0.02750800000000","ARG_OF_PERICENTER":"261.1668","SEMIMAJOR_AXIS":"6841.048","EPOCH":"2023-05-29T22:00:00.999936","GP_ID":"232751966","MEAN_MOTION":"15.34330103"},{"OBJECT_TYPE":"PAYLOAD","INCLINATION":"42.9983","FILE":"3920136","EPHEMERIS_TYPE":"0","LAUNCH_DATE":"2023-03-24","APOAPSIS":"461.720","REV_AT_EPOCH":"1072","MEAN_MOTION_DDOT":"0.0000000000000","TLE_LINE2":"2 56020  42.9983 159.8601 0001235 265.6154 310.0659 15.35015953 10721","MEAN_MOTION_DOT":"-0.00862718","OBJECT_NAME":"STARLINK-5912","MEAN_MOTION":"15.35015953","GP_ID":"232751968","EPOCH":"2023-05-29T22:00:00.999936","SEMIMAJOR_AXIS":"6839.010","ARG_OF_PERICENTER":"265.6154","ECCENTRICITY":"0.00012350","BSTAR":"-0.02697000000000","NORAD_CAT_ID":"56020","ELEMENT_SET_NO":"999","PERIAPSIS":"460.030","MEAN_ANOMALY":"310.0659","COUNTRY_CODE":"US","TLE_LINE1":"1 56020U 23042AL  23149.91667824 -.00862718  00000-0 -26970-1 0  9995","PERIOD":"93.810","REF_FRAME":"TEME","TIME_SYSTEM":"UTC","MEAN_ELEMENT_THEORY":"SGP4","SITE":"AFETR","RCS_SIZE":"LARGE","DECAY_DATE":null,"OBJECT_ID":"2023-042AL","RA_OF_ASC_NODE":"159.8601","CLASSIFICATION_TYPE":"U","CENTER_NAME":"EARTH"},{"OBJECT_NAME":"STARLINK-5907","MEAN_MOTION_DOT":"-0.00860419","TLE_LINE2":"2 56021  42.9982 159.8777 0001273 257.8975 310.6223 15.34770479 10724","MEAN_MOTION_DDOT":"0.0000000000000","APOAPSIS":"462.475","REV_AT_EPOCH":"1072","LAUNCH_DATE":"2023-03-24","EPHEMERIS_TYPE":"0","FILE":"3920136","INCLINATION":"42.9982","OBJECT_TYPE":"PAYLOAD","ECCENTRICITY":"0.00012730","BSTAR":"-0.02710500000000","SEMIMAJOR_AXIS":"6839.739","ARG_OF_PERICENTER":"257.8975","EPOCH":"2023-05-29T22:00:00.999936","GP_ID":"232752460","MEAN_MOTION":"15.34770479","TLE_LINE1":"1 56021U 23042AM  23149.91667824 -.00860419  00000-0 -27105-1 0  9993","COUNTRY_CODE":"US","MEAN_ANOMALY":"310.6223","PERIAPSIS":"460.734","ELEMENT_SET_NO":"999","NORAD_CAT_ID":"56021","CLASSIFICATION_TYPE":"U","CENTER_NAME":"EARTH","RA_OF_ASC_NODE":"159.8777","OBJECT_ID":"2023-042AM","DECAY_DATE":null,"RCS_SIZE":"LARGE","SITE":"AFETR","MEAN_ELEMENT_THEORY":"SGP4","TIME_SYSTEM":"UTC","REF_FRAME":"TEME","PERIOD":"93.825"}];
